OBJECT_NAME,OBJECT_ID,EPOCH,MEAN_MOTION,ECCENTRICITY,INCLINATION,RA_OF_ASC_NODE,ARG_OF_PERICENTER,MEAN_ANOMALY,EPHEMERIS_TYPE,CLASSIFICATION_TYPE,NORAD_CAT_ID,ELEMENT_SET_NO,REV_AT_EPOCH,BSTAR,MEAN_MOTION_DOT,MEAN_MOTION_DDOT
GRBBETA,2024-128C,2026-05-12T04:16:52.689504,15.06337354,.00453867,61.9909,342.5749,127.2263,233.2985,0,U,60237,999,10084,.18359103E-3,.2553E-4,0
TRANSPORTER-11 OBJECT A,2024-149A,2026-05-11T17:18:07.651296,15.32310771,.00031421,97.3731,211.7814,21.6111,338.5263,0,U,60468,999,9647,.1728658E-3,.5315E-4,0
WARATAH SEED-1,2024-149B,2026-05-12T11:07:25.898016,15.35034374,.00018412,97.3691,213.0309,43.4938,316.6450,0,U,60469,999,9663,.24005321E-3,.808E-4,0
PHISAT 2,2024-149C,2026-05-12T05:24:26.535168,15.30531978,.00023202,97.3759,211.6566,56.6309,303.5154,0,U,60470,999,9649,.14487313E-3,.42E-4,0
LEMUR-2-TOMATOKECHUP,2024-149D,2026-05-12T04:52:17.400288,15.35277185,.00020085,97.3798,214.1805,51.5324,308.6100,0,U,60471,999,9664,.18407977E-3,.6224E-4,0
CONNECTA IOT-1,2024-149E,2026-05-12T11:52:02.199360,15.23257687,.00032727,97.3763,209.3953,67.7380,292.4204,0,U,60472,999,9636,.11198329E-3,.2583E-4,0
LOPEN,2024-149F,2026-05-12T12:03:56.268576,15.38643313,.00021662,97.3778,215.6218,68.4289,291.7187,0,U,60473,999,9677,.25258233E-3,.9559E-4,0
ROCK,2024-149G,2026-05-11T23:15:24.139296,15.38639265,.00022156,97.3771,215.1024,60.0243,300.1222,0,U,60474,999,9669,.25542137E-3,.9667E-4,0
CONNECTA IOT-3,2024-149H,2026-05-12T13:57:48.051360,15.23268709,.00039808,97.3738,209.2450,54.0489,306.1117,0,U,60475,999,9638,.1146295E-3,.2647E-4,0
QUBE,2024-149J,2026-05-12T04:38:39.124896,15.45539458,.00018122,97.3773,217.9826,42.9399,317.1991,0,U,60476,999,9690,.30521941E-3,.14575E-3,0
WREN-1,2024-149L,2026-05-12T11:31:56.912448,15.40152537,.00046486,97.3765,216.2591,48.6561,311.5085,0,U,60478,999,9682,.30824744E-3,.12285E-3,0
TOMORROW-S1,2024-149M,2026-05-12T11:37:02.439264,15.32210896,.00032337,97.3751,213.0834,47.0890,313.0623,0,U,60479,999,9662,.15095653E-3,.4616E-4,0
FLOCK 4BE-18,2024-149N,2026-05-12T12:02:46.666464,15.40701532,.00038989,97.3727,215.8919,47.9547,312.2031,0,U,60480,999,9681,.26213475E-3,.10622E-3,0
FLOCK 4BE-7,2024-149P,2026-05-12T05:02:04.782912,15.38833540,.00032299,97.3758,215.0157,57.2107,302.9449,0,U,60481,999,9671,.33304787E-3,.12716E-3,0
TOMORROW-S2,2024-149T,2026-05-12T10:47:39.223392,15.32219998,.00039409,97.3818,213.5045,62.1104,298.0536,0,U,60485,999,9661,.15168061E-3,.464E-4,0
FLOCK 4BE-36,2024-149U,2026-05-12T11:51:07.400160,15.41594623,.00041754,97.3740,216.5274,57.9599,302.2053,0,U,60486,999,9685,.24217196E-3,.10102E-3,0
FLOCK 4BE-25,2024-149V,2026-05-12T02:47:33.127296,15.37885234,.00028215,97.3796,215.0497,63.7428,296.4107,0,U,60487,999,9669,.23122746E-3,.853E-4,0
FLOCK 4BE-31,2024-149W,2026-05-12T11:43:18.644736,15.42712088,.00032756,97.3797,217.2855,67.4698,292.6896,0,U,60488,999,9687,.27529898E-3,.11935E-3,0
FLOCK 4BE-20,2024-149X,2026-05-12T04:36:06.360192,15.37110203,.00042926,97.3695,214.0962,57.4242,302.7416,0,U,60489,999,9668,.2443369E-3,.8796E-4,0
FLOCK 4BE-23,2024-149Y,2026-05-12T11:58:31.653408,15.36752165,.00042256,97.3778,214.7604,63.9560,296.2119,0,U,60490,999,9671,.27059924E-3,.9639E-4,0
FLOCK 4BE-15,2024-149Z,2026-05-12T04:48:59.551200,15.52091446,.00038689,97.3692,216.4453,145.3754,214.7751,0,U,60491,999,9683,.11917102E-2,.72395E-3,0
FLOCK 4BE-17,2024-149AA,2026-05-12T12:43:37.862112,15.38727205,.00034248,97.3774,215.6484,56.0844,304.0727,0,U,60492,999,9677,.24846472E-3,.9429E-4,0
NUSAT-50 (NANCY ROMAN),2024-149AB,2026-05-12T04:28:04.544544,15.29221911,.00024994,97.3788,213.7110,353.2214,6.8992,0,U,60493,999,9662,.19588568E-3,.5479E-4,0
FLOCK 4BE-22,2024-149AC,2026-05-12T11:28:49.987776,15.40072469,.00041951,97.3732,215.7333,59.6477,300.5183,0,U,60494,999,9680,.24360863E-3,.9662E-4,0
FLOCK 4BE-34,2024-149AD,2026-05-12T11:54:07.526880,15.40118758,.00045067,97.3780,216.5496,68.9837,291.1891,0,U,60495,999,9683,.24745798E-3,.9831E-4,0
TYCHE,2024-149AE,2026-05-12T12:38:01.088736,15.25823566,.00037706,97.3755,210.8214,66.1323,294.0310,0,U,60496,999,9646,.11546457E-3,.2881E-4,0
FLOCK 4BE-32,2024-149AF,2026-05-12T05:24:48.291552,15.40912630,.0004412,97.3719,215.8005,66.0792,294.0917,0,U,60497,999,9679,.24274027E-3,.9899E-4,0
NUSAT-48 (HENRIETTA LEAVITT),2024-149AG,2026-05-12T04:27:03.998880,15.29834257,.00049675,97.3905,213.8698,58.7326,301.4400,0,U,60498,999,9663,.19952067E-3,.569E-4,0
FLOCK 4BE-30,2024-149AH,2026-05-12T11:26:40.903584,15.48629913,.00022729,97.3782,217.0330,160.9425,199.1911,0,U,60499,999,9623,.11118341E-2,.59666E-3,0
