GRBBETA                 
1 60237U 24128C   26132.17838761  .00002553  00000+0  18359-3 0  9993
2 60237  61.9909 342.5749 0045386 127.2263 233.2985 15.06337354100849
TRANSPORTER-11 OBJECT A 
1 60468U 24149A   26131.72092189  .00005315  00000+0  17287-3 0  9996
2 60468  97.3731 211.7814 0003142  21.6111 338.5263 15.32310771 96478
WARATAH SEED-1          
1 60469U 24149B   26132.46349419  .00008080  00000+0  24005-3 0  9998
2 60469  97.3691 213.0309 0001841  43.4938 316.6450 15.35034374 96639
PHISAT 2                
1 60470U 24149C   26132.22530712  .00004200  00000+0  14487-3 0  9995
2 60470  97.3759 211.6566 0002320  56.6309 303.5154 15.30531978 96493
LEMUR-2-TOMATOKECHUP    
1 60471U 24149D   26132.20297917  .00006224  00000+0  18408-3 0  9996
2 60471  97.3798 214.1805 0002008  51.5324 308.6100 15.35277185 96641
CONNECTA IOT-1          
1 60472U 24149E   26132.49446990  .00002583  00000+0  11198-3 0  9998
2 60472  97.3763 209.3953 0003272  67.7380 292.4204 15.23257687 96365
LOPEN                   
1 60473U 24149F   26132.50273459  .00009559  00000+0  25258-3 0  9991
2 60473  97.3778 215.6218 0002166  68.4289 291.7187 15.38643313 96771
ROCK                    
1 60474U 24149G   26131.96902939  .00009667  00000+0  25542-3 0  9999
2 60474  97.3771 215.1024 0002215  60.0243 300.1222 15.38639265 96695
CONNECTA IOT-3          
1 60475U 24149H   26132.58180615  .00002647  00000+0  11463-3 0  9996
2 60475  97.3738 209.2450 0003980  54.0489 306.1117 15.23268709 96381
QUBE                    
1 60476U 24149J   26132.19350839  .00014575  00000+0  30522-3 0  9991
2 60476  97.3773 217.9826 0001812  42.9399 317.1991 15.45539458 96908
WREN-1                  
1 60478U 24149L   26132.48051982  .00012285  00000+0  30825-3 0  9994
2 60478  97.3765 216.2591 0004648  48.6561 311.5085 15.40152537 96823
TOMORROW-S1             
1 60479U 24149M   26132.48405601  .00004616  00000+0  15096-3 0  9998
2 60479  97.3751 213.0834 0003233  47.0890 313.0623 15.32210896 96628
FLOCK 4BE-18            
1 60480U 24149N   26132.50192901  .00010622  00000+0  26213-3 0  9996
2 60480  97.3727 215.8919 0003898  47.9547 312.2031 15.40701532 96818
FLOCK 4BE-7             
1 60481U 24149P   26132.20977758  .00012716  00000+0  33305-3 0  9991
2 60481  97.3758 215.0157 0003229  57.2107 302.9449 15.38833540 96713
TOMORROW-S2             
1 60485U 24149T   26132.44975953  .00004640  00000+0  15168-3 0  9990
2 60485  97.3818 213.5045 0003940  62.1104 298.0536 15.32219998 96615
FLOCK 4BE-36            
1 60486U 24149U   26132.49383565  .00010102  00000+0  24217-3 0  9993
2 60486  97.3740 216.5274 0004175  57.9599 302.2053 15.41594623 96857
FLOCK 4BE-25            
1 60487U 24149V   26132.11635564  .00008530  00000+0  23123-3 0  9999
2 60487  97.3796 215.0497 0002821  63.7428 296.4107 15.37885234 96694
FLOCK 4BE-31            
1 60488U 24149W   26132.48841024  .00011935  00000+0  27530-3 0  9999
2 60488  97.3797 217.2855 0003275  67.4698 292.6896 15.42712088 96877
FLOCK 4BE-20            
1 60489U 24149X   26132.19174028  .00008796  00000+0  24434-3 0  9992
2 60489  97.3695 214.0962 0004292  57.4242 302.7416 15.37110203 96688
FLOCK 4BE-23            
1 60490U 24149Y   26132.49897747  .00009639  00000+0  27060-3 0  9992
2 60490  97.3778 214.7604 0004225  63.9560 296.2119 15.36752165 96712
FLOCK 4BE-15            
1 60491U 24149Z   26132.20068925  .00072395  00000+0  11917-2 0  9992
2 60491  97.3692 216.4453 0003868 145.3754 214.7751 15.52091446 96837
FLOCK 4BE-17            
1 60492U 24149AA  26132.53029933  .00009429  00000+0  24846-3 0  9999
2 60492  97.3774 215.6484 0003424  56.0844 304.0727 15.38727205 96772
NUSAT-50 (NANCY ROMAN)  
1 60493U 24149AB  26132.18616371  .00005479  00000+0  19589-3 0  9998
2 60493  97.3788 213.7110 0002499 353.2214   6.8992 15.29221911 96625
FLOCK 4BE-22            
1 60494U 24149AC  26132.47835634  .00009662  00000+0  24361-3 0  9998
2 60494  97.3732 215.7333 0004195  59.6477 300.5183 15.40072469 96808
FLOCK 4BE-34            
1 60495U 24149AD  26132.49592045  .00009831  00000+0  24746-3 0  9992
2 60495  97.3780 216.5496 0004506  68.9837 291.1891 15.40118758 96836
TYCHE                   
1 60496U 24149AE  26132.52640149  .00002881  00000+0  11546-3 0  9998
2 60496  97.3755 210.8214 0003770  66.1323 294.0310 15.25823566 96466
FLOCK 4BE-32            
1 60497U 24149AF  26132.22555893  .00009899  00000+0  24274-3 0  9995
2 60497  97.3719 215.8005 0004412  66.0792 294.0917 15.40912630 96790
NUSAT-48 (HENRIETTA LE*)
1 60498U 24149AG  26132.18546295  .00005690  00000+0  19952-3 0  9999
2 60498  97.3905 213.8698 0004967  58.7326 301.4400 15.29834257 96638
FLOCK 4BE-30            
1 60499U 24149AH  26132.47686231  .00059666  00000+0  11118-2 0  9994
2 60499  97.3782 217.0330 0002272 160.9425 199.1911 15.48629913 96231
